1 15482U 85006A   13136.85895102  .00000155  00000-0  66533-4 0  9999
2 15482 074.0433 282.9526 0015477 255.9046 265.9934 14.32583769479884
1 15482U 85006A   13137.97188262  .00000115  00000-0  51845-4 0  9991
2 15482 074.0435 280.9215 0015465 253.7525 245.5658 14.32584565480046
1 15482U 85006A   13139.49314280  .00000091  00000-0  43188-4 0  9995
2 15482 074.0437 278.1454 0015464 250.7676 171.0069 14.32585158480267
1 15482U 85006A   13140.54363104  .00000102  00000-0  47235-4 0  9992
2 15482 074.0438 276.2282 0015438 248.7250 188.5680 14.32585180480416
1 15482U 85006A   13141.81389231  .00000120  00000-0  53651-4 0  9991
2 15482 074.0438 273.9102 0015396 246.2636 259.5299 14.32585361480590
1 15482U 85006A   13142.86129808  .00000121  00000-0  54113-4 0  9994
2 15482 074.0438 271.9989 0015400 244.2450 261.1764 14.32585745480748
1 15482U 85006A   13143.90934248  .00000153  00000-0  65819-4 0  9992
2 15482 074.0439 270.0863 0015406 242.2226 266.1205 14.32586134480899
1 15482U 85006A   13145.50054898  .00000139  00000-0  60804-4 0  9997
2 15482 074.0438 267.1826 0015356 239.1263 192.2728 14.32586611481120
1 15482U 85006A   13146.84177894  .00000108  00000-0  49306-4 0  9997
2 15482 074.0437 264.7351 0015300 236.5279 269.2375 14.32587327481311
1 15482U 85006A   13147.88788421  .00000059  00000-0  31258-4 0  9998
2 15482 074.0437 262.8263 0015249 234.4666 264.2281 14.32587894481467
1 15482U 85006A   13149.48086465  .00000054  00000-0  29363-4 0  9994
2 15482 074.0437 259.9194 0015197 231.3203 199.5846 14.32588113481699
1 15482U 85006A   13150.53144043  .00000068  00000-0  34593-4 0  9995
2 15482 074.0438 258.0023 0015208 229.3528 217.5322 14.32588205481840
